SL-4 R/B                
1 39679U 14021B   26038.55721993  .00014916  00000+0  33866-3 0  9991
2 39679  51.6066 124.1633 0098992 353.1764   6.7866 15.38223693651632
ALOS-2                  
1 39766U 14029A   26039.23092124  .00000765  00000+0  10930-3 0  9993
2 39766  97.9212 138.2521 0001442  97.6776 262.4599 14.79498573632519
YAOGAN-29               
1 41038U 15069A   26039.24132861  .00001212  00000+0  15594-3 0  9996
2 41038  98.0176  67.5878 0002929  85.3654 274.7893 14.82963861551518
ASTRO-H (HITOMI)        
1 41337U 16012A   26038.81957104  .00004330  00000+0  25568-3 0  9990
2 41337  30.9979 189.2715 0009830  32.4118 327.7123 15.09787041547710
HXMT (HUIYAN)           
1 42758U 17034A   26038.89014653  .00007257  00000+0  36721-3 0  9998
2 42758  43.0132 182.2947 0030941  44.4005 315.9316 15.17067601478010
CZ-2C R/B               
1 43521U 18054D   26038.69652467  .00363975  52546-4  86190-3 0  9993
2 43521  35.1287 149.7633 0012571  12.4859 347.6190 15.95531930424080
SAOCOM 1A               
1 43641U 18076A   26039.25836594  .00000068  00000+0  15083-4 0  9996
2 43641  97.8870 227.8481 0001370  84.6924 275.4445 14.82155908397008
H-2A R/B                
1 43682U 18084L   26039.11681516  .00022176  00000+0  55007-3 0  9990
2 43682  98.8760 250.2131 0026322 124.8795 235.4927 15.40046664401225
SAOCOM 1B               
1 46265U 20059A   26039.22209517  .00000918  00000+0  12179-3 0  9997
2 46265  97.8868 226.9108 0001389  84.5829 275.5543 14.82165960294385
CSS (TIANHE)            
1 48274U 21035A   26039.26676819  .00021315  00000+0  26604-3 0  9993
2 48274  41.4686  27.0109 0004988  28.6322 331.4790 15.59347217273011
COSMOS 2550             
1 48865U 21056A   26039.30433806  .00008368  00000+0  25983-3 0  9996
2 48865  67.1446 129.8178 0008395 269.8799  90.1393 15.33836556258951
CZ-2C R/B               
1 52794U 22058K   26039.17458725  .00031885  00000+0  50305-3 0  9993
2 52794  50.1885 109.8713 0042355  75.3441 285.2219 15.52161454205547
