CCSDS_OMM_VERS = 2.0
CREATION_DATE  = 
ORIGINATOR     = 

OBJECT_NAME    = SL-4 R/B
OBJECT_ID      = 2014-021B
CENTER_NAME    = EARTH
REF_FRAME      = TEME
TIME_SYSTEM    = UTC
MEAN_ELEMENT_THEORY = SGP/SGP4

EPOCH          = 2026-02-07T13:22:23.801952
MEAN_MOTION    = 15.38223693
ECCENTRICITY   = .0098992
INCLINATION    = 51.6066
RA_OF_ASC_NODE = 124.1633
ARG_OF_PERICENTER = 353.1764
MEAN_ANOMALY   = 6.7866

EPHEMERIS_TYPE = 0
CLASSIFICATION_TYPE = U
NORAD_CAT_ID   = 39679
ELEMENT_SET_NO = 999
REV_AT_EPOCH   = 65163
BSTAR          = .33866E-3
MEAN_MOTION_DOT = .14916E-3
MEAN_MOTION_DDOT = 0

CCSDS_OMM_VERS = 2.0
CREATION_DATE  = 
ORIGINATOR     = 

OBJECT_NAME    = ALOS-2
OBJECT_ID      = 2014-029A
CENTER_NAME    = EARTH
REF_FRAME      = TEME
TIME_SYSTEM    = UTC
MEAN_ELEMENT_THEORY = SGP/SGP4

EPOCH          = 2026-02-08T05:32:31.595136
MEAN_MOTION    = 14.79498573
ECCENTRICITY   = .00014427
INCLINATION    = 97.9212
RA_OF_ASC_NODE = 138.2521
ARG_OF_PERICENTER = 97.6776
MEAN_ANOMALY   = 262.4599

EPHEMERIS_TYPE = 0
CLASSIFICATION_TYPE = U
NORAD_CAT_ID   = 39766
ELEMENT_SET_NO = 999
REV_AT_EPOCH   = 63251
BSTAR          = .10929899E-3
MEAN_MOTION_DOT = .765E-5
MEAN_MOTION_DDOT = 0

CCSDS_OMM_VERS = 2.0
CREATION_DATE  = 
ORIGINATOR     = 

OBJECT_NAME    = YAOGAN-29
OBJECT_ID      = 2015-069A
CENTER_NAME    = EARTH
REF_FRAME      = TEME
TIME_SYSTEM    = UTC
MEAN_ELEMENT_THEORY = SGP/SGP4

EPOCH          = 2026-02-08T05:47:30.791904
MEAN_MOTION    = 14.82963861
ECCENTRICITY   = .00029294
INCLINATION    = 98.0176
RA_OF_ASC_NODE = 67.5878
ARG_OF_PERICENTER = 85.3654
MEAN_ANOMALY   = 274.7893

EPHEMERIS_TYPE = 0
CLASSIFICATION_TYPE = U
NORAD_CAT_ID   = 41038
ELEMENT_SET_NO = 999
REV_AT_EPOCH   = 55151
BSTAR          = .15594004E-3
MEAN_MOTION_DOT = .1212E-4
MEAN_MOTION_DDOT = 0

CCSDS_OMM_VERS = 2.0
CREATION_DATE  = 
ORIGINATOR     = 

OBJECT_NAME    = ASTRO-H (HITOMI)
OBJECT_ID      = 2016-012A
CENTER_NAME    = EARTH
REF_FRAME      = TEME
TIME_SYSTEM    = UTC
MEAN_ELEMENT_THEORY = SGP/SGP4

EPOCH          = 2026-02-07T19:40:10.937856
MEAN_MOTION    = 15.09787041
ECCENTRICITY   = .00098309
INCLINATION    = 30.9979
RA_OF_ASC_NODE = 189.2715
ARG_OF_PERICENTER = 32.4118
MEAN_ANOMALY   = 327.7123

EPHEMERIS_TYPE = 0
CLASSIFICATION_TYPE = U
NORAD_CAT_ID   = 41337
ELEMENT_SET_NO = 999
REV_AT_EPOCH   = 54771
BSTAR          = .25567534E-3
MEAN_MOTION_DOT = .433E-4
MEAN_MOTION_DDOT = 0

CCSDS_OMM_VERS = 2.0
CREATION_DATE  = 
ORIGINATOR     = 

OBJECT_NAME    = HXMT (HUIYAN)
OBJECT_ID      = 2017-034A
CENTER_NAME    = EARTH
REF_FRAME      = TEME
TIME_SYSTEM    = UTC
MEAN_ELEMENT_THEORY = SGP/SGP4

EPOCH          = 2026-02-07T21:21:48.660192
MEAN_MOTION    = 15.17067601
ECCENTRICITY   = .0030941
INCLINATION    = 43.0132
RA_OF_ASC_NODE = 182.2947
ARG_OF_PERICENTER = 44.4005
MEAN_ANOMALY   = 315.9316

EPHEMERIS_TYPE = 0
CLASSIFICATION_TYPE = U
NORAD_CAT_ID   = 42758
ELEMENT_SET_NO = 999
REV_AT_EPOCH   = 47801
BSTAR          = .36721E-3
MEAN_MOTION_DOT = .7257E-4
MEAN_MOTION_DDOT = 0

CCSDS_OMM_VERS = 2.0
CREATION_DATE  = 
ORIGINATOR     = 

OBJECT_NAME    = CZ-2C R/B
OBJECT_ID      = 2018-054D
CENTER_NAME    = EARTH
REF_FRAME      = TEME
TIME_SYSTEM    = UTC
MEAN_ELEMENT_THEORY = SGP/SGP4

EPOCH          = 2026-02-07T16:42:59.731488
MEAN_MOTION    = 15.95531930
ECCENTRICITY   = .00125719
INCLINATION    = 35.1287
RA_OF_ASC_NODE = 149.7633
ARG_OF_PERICENTER = 12.4859
MEAN_ANOMALY   = 347.6190

EPHEMERIS_TYPE = 0
CLASSIFICATION_TYPE = U
NORAD_CAT_ID   = 43521
ELEMENT_SET_NO = 999
REV_AT_EPOCH   = 42408
BSTAR          = .86189615E-3
MEAN_MOTION_DOT = .363975E-2
MEAN_MOTION_DDOT = .52546102E-4

CCSDS_OMM_VERS = 2.0
CREATION_DATE  = 
ORIGINATOR     = 

OBJECT_NAME    = SAOCOM 1A
OBJECT_ID      = 2018-076A
CENTER_NAME    = EARTH
REF_FRAME      = TEME
TIME_SYSTEM    = UTC
MEAN_ELEMENT_THEORY = SGP/SGP4

EPOCH          = 2026-02-08T06:12:02.817216
MEAN_MOTION    = 14.82155908
ECCENTRICITY   = .00013704
INCLINATION    = 97.8870
RA_OF_ASC_NODE = 227.8481
ARG_OF_PERICENTER = 84.6924
MEAN_ANOMALY   = 275.4445

EPHEMERIS_TYPE = 0
CLASSIFICATION_TYPE = U
NORAD_CAT_ID   = 43641
ELEMENT_SET_NO = 999
REV_AT_EPOCH   = 39700
BSTAR          = .15082807E-4
MEAN_MOTION_DOT = .68E-6
MEAN_MOTION_DDOT = 0

CCSDS_OMM_VERS = 2.0
CREATION_DATE  = 
ORIGINATOR     = 

OBJECT_NAME    = H-2A R/B
OBJECT_ID      = 2018-084L
CENTER_NAME    = EARTH
REF_FRAME      = TEME
TIME_SYSTEM    = UTC
MEAN_ELEMENT_THEORY = SGP/SGP4

EPOCH          = 2026-02-08T02:48:12.829824
MEAN_MOTION    = 15.40046664
ECCENTRICITY   = .00263221
INCLINATION    = 98.8760
RA_OF_ASC_NODE = 250.2131
ARG_OF_PERICENTER = 124.8795
MEAN_ANOMALY   = 235.4927

EPHEMERIS_TYPE = 0
CLASSIFICATION_TYPE = U
NORAD_CAT_ID   = 43682
ELEMENT_SET_NO = 999
REV_AT_EPOCH   = 40122
BSTAR          = .55006836E-3
MEAN_MOTION_DOT = .22176E-3
MEAN_MOTION_DDOT = 0

CCSDS_OMM_VERS = 2.0
CREATION_DATE  = 
ORIGINATOR     = 

OBJECT_NAME    = SAOCOM 1B
OBJECT_ID      = 2020-059A
CENTER_NAME    = EARTH
REF_FRAME      = TEME
TIME_SYSTEM    = UTC
MEAN_ELEMENT_THEORY = SGP/SGP4

EPOCH          = 2026-02-08T05:19:49.022688
MEAN_MOTION    = 14.82165960
ECCENTRICITY   = .00013897
INCLINATION    = 97.8868
RA_OF_ASC_NODE = 226.9108
ARG_OF_PERICENTER = 84.5829
MEAN_ANOMALY   = 275.5543

EPHEMERIS_TYPE = 0
CLASSIFICATION_TYPE = U
NORAD_CAT_ID   = 46265
ELEMENT_SET_NO = 999
REV_AT_EPOCH   = 29438
BSTAR          = .12179377E-3
MEAN_MOTION_DOT = .918E-5
MEAN_MOTION_DDOT = 0

CCSDS_OMM_VERS = 2.0
CREATION_DATE  = 
ORIGINATOR     = 

OBJECT_NAME    = CSS (TIANHE)
OBJECT_ID      = 2021-035A
CENTER_NAME    = EARTH
REF_FRAME      = TEME
TIME_SYSTEM    = UTC
MEAN_ELEMENT_THEORY = SGP/SGP4

EPOCH          = 2026-02-08T06:24:08.771616
MEAN_MOTION    = 15.59347217
ECCENTRICITY   = .00049883
INCLINATION    = 41.4686
RA_OF_ASC_NODE = 27.0109
ARG_OF_PERICENTER = 28.6322
MEAN_ANOMALY   = 331.4790

EPHEMERIS_TYPE = 0
CLASSIFICATION_TYPE = U
NORAD_CAT_ID   = 48274
ELEMENT_SET_NO = 999
REV_AT_EPOCH   = 27301
BSTAR          = .2660401E-3
MEAN_MOTION_DOT = .21315E-3
MEAN_MOTION_DDOT = 0

CCSDS_OMM_VERS = 2.0
CREATION_DATE  = 
ORIGINATOR     = 

OBJECT_NAME    = COSMOS 2550
OBJECT_ID      = 2021-056A
CENTER_NAME    = EARTH
REF_FRAME      = TEME
TIME_SYSTEM    = UTC
MEAN_ELEMENT_THEORY = SGP/SGP4

EPOCH          = 2026-02-08T07:18:14.808384
MEAN_MOTION    = 15.33836556
ECCENTRICITY   = .00083958
INCLINATION    = 67.1446
RA_OF_ASC_NODE = 129.8178
ARG_OF_PERICENTER = 269.8799
MEAN_ANOMALY   = 90.1393

EPHEMERIS_TYPE = 0
CLASSIFICATION_TYPE = U
NORAD_CAT_ID   = 48865
ELEMENT_SET_NO = 999
REV_AT_EPOCH   = 25895
BSTAR          = .25982825E-3
MEAN_MOTION_DOT = .8368E-4
MEAN_MOTION_DDOT = 0

CCSDS_OMM_VERS = 2.0
CREATION_DATE  = 
ORIGINATOR     = 

OBJECT_NAME    = CZ-2C R/B
OBJECT_ID      = 2022-058K
CENTER_NAME    = EARTH
REF_FRAME      = TEME
TIME_SYSTEM    = UTC
MEAN_ELEMENT_THEORY = SGP/SGP4

EPOCH          = 2026-02-08T04:11:24.338400
MEAN_MOTION    = 15.52161454
ECCENTRICITY   = .00423555
INCLINATION    = 50.1885
RA_OF_ASC_NODE = 109.8713
ARG_OF_PERICENTER = 75.3441
MEAN_ANOMALY   = 285.2219

EPHEMERIS_TYPE = 0
CLASSIFICATION_TYPE = U
NORAD_CAT_ID   = 52794
ELEMENT_SET_NO = 999
REV_AT_EPOCH   = 20554
BSTAR          = .50304634E-3
MEAN_MOTION_DOT = .31885E-3
MEAN_MOTION_DDOT = 0

